ONEWEB-0613             
1 56071U 23043AB  23291.71029025 -.00000072  00000+0 -22548-3 0  9998
2 56071  87.8950  92.8160 0001812  77.8924 282.2410 13.15548354 29484
ONEWEB-0630             
1 56072U 23043AC  23291.70606251 -.00000157  00000+0 -45198-3 0  9990
2 56072  87.8948  92.8166 0001576  73.8215 286.3089 13.15548503 29476
ONEWEB-0632             
1 56073U 23043AD  23291.47366753 -.00000037  00000+0 -13109-3 0  9999
2 56073  87.8954  92.8788 0002341  85.8047 274.3350 13.15548464 29442
ONEWEB-0633             
1 56074U 23043AE  23291.46783780  .00000047  00000+0  90344-4 0  9998
2 56074  87.8946  92.8737 0001547  63.8187 296.3103 13.16016211 29425
ONEWEB-0634             
1 56075U 23043AF  23291.45145948  .00000161  00000+0  39352-3 0  9994
2 56075  87.8945  92.8721 0001168  95.6792 264.4472 13.15541069 29419
ONEWEB-0635             
1 56076U 23043AG  23291.52168860  .00000171  00000+0  42327-3 0  9998
2 56076  87.8926  92.9311 0002231  87.5445 272.5941 13.15084388 29453
ONEWEB-0636             
1 56077U 23043AH  23291.51329474  .00000179  00000+0  44505-3 0  9996
2 56077  87.8930  92.8958 0002153  90.7419 269.3958 13.15067949 29439
ONEWEB-0637             
1 56078U 23043AJ  23291.50746544  .00000128  00000+0  30530-3 0  9994
2 56078  87.8955  92.8577 0002118  94.5953 265.5419 13.15546170 29450
